[
  {
    "name": "Barbican Yoga Cave",
    "provider": "MBO",
    "studioid": 253770,
    "redirectPage":  "",
    "locale":
    {
      "name": "Barbican Yoga Cave",
      "url": "http://barbicanyogacave.com/",
      "postcode": "EC"
    }
  },
  {
    "name": "Battersea Yoga",
    "provider": "MBO",
    "studioid": 83692,
    "redirectPage":  "",
    "locale":
    {
      "name": "Battersea Yoga",
      "url": "http://batterseayoga.com/",
      "postcode": "SW"
    }
  },
  {
    "name": "Blue Cow Yoga",
    "provider": "MBO",
    "studioid": 23194,
    "redirectPage":  "",
    "locale": 
    {
      "name": "Blue Cow Yoga",
      "url": "http://bluecowyoga.com/",
      "postcode": "EC"
    }
  },
  {
    "name": "Centric",
    "provider": "MBO",
    "studioid": 36253,
    "redirectPage":  "",
    "locales":
    {
      "Yogacentric":
      {
        "name": "Yoga Centric",
        "url": "http://www.yogacentric.co.uk/",
        "postcode": "N"
      },
      "Centric: 3 Tribes":
      {
        "name": "Centric:3Tribes",
        "url": "http://www.3tribes.co.uk/",
        "postcode": "N"
      }
    }
  },
  {
    "name": "Down to Earth",
    "provider": "MBO",
    "studioid": 179970,
    "redirectPage":  "",
    "locale":
    {
      "name": "Down to Earth",
      "url": "http://downtoearthlondon.co.uk/",
      "postcode": "NW"
    }
  },
  {
    "name": "Dragonfly Yoga",
    "provider": "MBO",
    "studioid": 221895,
    "redirectPage":  "",
    "locale":
    {
      "name": "Dragonfly Yoga",
      "url": "http://www.dragonfly-yoga.org/",
      "postcode": "SE"
    }
  },
  {
    "name": "East of Eden",
    "provider": "MBO",
    "studioid": -192241,
    "redirectPage":  "",
    "locale":
    {
      "name": "East of Eden",
      "url": "http://www.edeneast.co.uk/",
      "postcode": "E"
    }
  },
  {
    "name": "Evolve Wellness Centre",
    "provider": "MBO",
    "studioid": 12023,
    "redirectPage":  "",
    "locale":
    {
      "name": "Evolve Wellness Centre",
      "url": "http://www.evolvewellnesscentre.com/",
      "postcode": "SW"
    }
  },
  {
    "name": "Fierce Grace",
    "provider": "MBO",
    "studioid": 1694,
    "redirectPage":  "",
    "locales":
    {
      "Fierce Grace City":
      {
        "name": "Fierce Grace City",
        "url": "http://www.fiercegracecity.com/",
        "postcode": "N"
      },
      "Fierce Grace North":
      {
        "name": "Fierce Grace North",
        "url": "http://www.fiercegracenorth.com/",
        "postcode": "NW"
      },
      "Fierce Grace West":
      {
        "name": "Fierce Grace West",
        "url": "http://www.fiercegracewest.com/",
        "postcode": "W"
      }
    }
  },
  {
    "name": "Fierce Grace Finchley",
    "provider": "MBO",
    "studioid": 135556,
    "redirectPage":  "",
    "locale":
    {
      "name": "Fierce Grace Finchley",
      "url": "http://www.fiercegracefinchley.com/",
      "postcode": "N"
    }
  },
  {
    "name": "Fierce Grace Primrose Hill",
    "provider": "MBO",
    "studioid": 16517,
    "redirectPage":  "",
    "locale":
    {
      "name": "Fierce Grace Primrose Hill",
      "url": "http://www.fiercegraceprimrosehill.com/",
      "postcode": "NW"
    }
  },
  {
    "name": "Fierce Grace Brixton",
    "provider": "MBO",
    "studioid": 192378,
    "redirectPage":  "",
    "locale":
    {
      "name": "Fierce Grace Brixton",
      "url": "http://www.fiercegracebrixton.co.uk/",
      "postcode": "SW"
    }
  },
  {
    "name": "Garuda Yoga and Pilates",
    "provider": "MBO",
    "studioid": 24230,
    "redirectPage":  "",
    "locale":
    {
      "name": "Garuda Yoga and Pilates",
      "url": "https://www.thegaruda.net/",
      "postcode": "NW"
    }
  },
  {
    "name": "Good Vibes",
    "provider": "MBO",
    "studioid": 1769,
    "redirectPage":  "https://clients.mindbodyonline.com/classic/mainclass?fl=true&tabID=7",
    "locales": 
    {
      "Covent Garden":
      {
        "name": "Good Vibes Covent Garden",
        "url": "http://www.goodvibesfitness.co.uk/",
        "postcode": "WC"
      },
      "Fitzrovia":
      {
        "name": "Good Vibes Fitzrovia",
        "url": "http://www.goodvibesfitness.co.uk/",
        "postcode": "W"
      }
    }
  },
  {
    "name": "The Hot Spot",
    "provider": "MBO",
    "studioid": 1134,
    "redirectPage":  "",
    "locale":
    {
      "name": "The Hot Spot",
      "url": "http://thehotspotyoga.co.uk/",
      "postcode": "SW"
    }
  },
  {
    "name": "I Am Yoga",
    "provider": "MBO",
    "studioid": 217848,
    "redirectPage":  "",
    "locale": 
    {
      "name": "I Am Yoga",
      "url": "http://iamyogalondon.com/",
      "postcode": "W"
    }
  },
  {
    "name": "Indaba Yoga",
    "provider": "MBO",
    "studioid": 11974,
    "redirectPage":  "",
    "locale":
    {
      "name": "Indaba Yoga",
      "url": "http://indabayoga.com/",
      "postcode": "NW"
    }
  },
  {
    "name": "The Life Centre",
    "provider": "MBO",
    "studioid": -765,
    "redirectPage":  "",
    "locales":
    {
      "Notting Hill":
      {
        "name": "The Life Centre Notting Hill",
        "url": "http://www.thelifecentre.com/",
        "postcode": "W"
      },
      "Islington":
      {
        "name": "The Life Centre Islington",
        "url": "http://www.thelifecentre.com/",
        "postcode": "N"
      }
    }
  },
  {
    "name": "The Light Centre",
    "provider": "MBO",
    "studioid": 20481,
    "redirectPage":  "",
    "locales":
    {
      "Moorgate":
      {
        "name": "The Light Centre Moorgate",
        "url": "http://www.lightcentremoorgate.co.uk/",
        "postcode": "EC"
      },
      "Belgravia":
      {
        "name": "The Light Centre Belgravia",
        "url": "http://www.lightcentrebelgravia.co.uk/",
        "postcode": "SW"
      }
    }
  },
  {
    "name": "Lumi Power Yoga",
    "provider": "MBO",
    "studioid": 40542,
    "redirectPage":  "",
    "locale":
    {
      "name": "Lumi Power Yoga",
      "url": "http://www.lumipoweryoga.com/",
      "postcode": "W"
    }
  },
  {
    "name": "More Yoga",
    "provider": "MBO",
    "studioid": 256292,
    "redirectPage":  "",
    "locales":
    {
      "MoreYoga Finsbury Park":
      {
        "name": "More Yoga Finsbury Park",
        "url": "http://www.morefit.co.uk/moreyoga/",
        "postcode": "N"
      },
      "MoreYoga Exmouth Market":
      {
        "name": "More Yoga Exmouth Market",
        "url": "http://www.morefit.co.uk/moreyoga/",
        "postcode": "EC"
      },
      "MoreYoga Old Street":
      {
        "name": "More Yoga Old Street",
        "url": "http://www.morefit.co.uk/moreyoga/",
        "postcode": "EC"
      }
    }
  },
  {
    "name": "Power Yoga Company",
    "provider": "MBO",
    "studioid": 4706,
    "redirectPage":  "",
    "locale": 
    {
      "name": "Power Yoga Company",
      "url": "http://thepoweryogaco.com/",
      "postcode": "SW"
    }
  },
  {
    "name": "The Refinery E9",
    "provider": "MBO",
    "studioid": 208867,
    "redirectPage":  "",
    "locale":
    {
      "name": "The Refinery E9",
      "url": "http://www.therefinerye9.com/",
      "postcode": "E"
    }
  },
  {
    "name": "Samsara Mind and Body",
    "provider": "MBO",
    "studioid": 37798,
    "redirectPage":  "",
    "locale":
    {
      "name": "Samsara Mind and Body",
      "url": "http://samsaramindandbody.com/",
      "postcode": "SW"
    }
  },
  {
    "name": "The Shala",
    "provider": "MBO",
    "studioid": 2155,
    "redirectPage":  "",
    "locale":
    {
      "name": "The Shala",
      "url": "http://www.theshala.co.uk/",
      "postcode": "SE"
    }
  },
  {
    "name": "Stretch",
    "provider": "MBO",
    "studioid": 26803,
    "redirectPage":  "",
    "locales": 
    {
      "Ada Street":
      {
        "name": "Stretch Ada Street",
        "url": "http://stretch-london.com/",
        "postcode": "E"
      },
      "Columbia Road":
      {
        "name": "Stretch Columbia Road",
        "url": "http://stretch-london.com/",
        "postcode": "E"
      }
    }
  },
  {
    "name": "Triyoga",
    "provider": "MBO",
    "studioid": 1991,
    "redirectPage":  "",
    "locales": 
    {
      "Soho":
      {
        "name": "Triyoga Soho",
        "url": "http://www.triyoga.co.uk/",
        "postcode": "W"
      },
      "Camden":
      {
        "name": "Triyoga Camden",
        "url": "http://www.triyoga.co.uk/",
        "postcode": "NW"
      },
      "Covent Garden":
      {
        "name": "Triyoga Covent Garden",
        "url": "http://www.triyoga.co.uk/",
        "postcode": "WC"
      },
      "Chelsea":
      {
        "name": "Triyoga Chelsea",
        "url": "http://www.triyoga.co.uk/",
        "postcode": "SW"
      }
    }
  },
  {
    "name": "Union Station Yoga",
    "provider": "MBO",
    "studioid": 197586,
    "redirectPage":  "",
    "locale":
    {
      "name": "Union Station Yoga",
      "url": "http://www.unionstationyoga.co.uk/",
      "postcode": "SW"
    }
  },
  {
    "name": "The Well Garden",
    "provider": "MBO",
    "studioid": 192421,
    "redirectPage":  "",
    "locale":
    {
      "name": "The Well Garden",
      "url": "http://thewellgarden.co.uk/",
      "postcode": "E"
    }
  },
  {
    "name": "Yogahaven",
    "provider": "MBO",
    "studioid": 12354,
    "redirectPage":  "",
    "locales":
    {
      "Clapham":
      {
        "name": "Yogahaven Clapham",
        "url": "http://www.yogahaven.co.uk/london-yoga/clapham/yoga",
        "postcode": "SW"
      },
      "Islington":
      {
        "name": "Yogahaven Islington",
        "url": "http://www.yogahaven.co.uk/london-yoga/islington/yoga",
        "postcode": "N"
      }
    }
  },
  {
    "name": "Yogahaven Richmond",
    "provider": "MBO",
    "studioid": 139714,
    "redirectPage":  "",
    "locale": 
    {
      "name": "Yogahaven Richmond",
      "url": "http://www.yogahaven.co.uk/london-yoga/richmond/yoga",
      "postcode": "TW"
    }
  },
  {
    "name": "Yogahome",
    "provider": "MBO",
    "studioid": 29783,
    "redirectPage":  "",
    "locale":
    {
      "name": "Yogahome",
      "url": "http://yogahome.com/",
      "postcode": "N"
    }
  },
  {
    "name": "The Yoga Edge",
    "provider": "MBO",
    "studioid": 49898,
    "redirectPage":  "",
    "locale":
    {
      "name": "The Yoga Edge",
      "url": "http://www.theyogaedge.co.uk/",
      "postcode": "SE"
    }
  },
  {
    "name": "Yoga on the Lane",
    "provider": "MBO",
    "studioid": 94169,
    "redirectPage":  "",
    "locale":
    {
      "name": "Yoga on the Lane",
      "url": "http://www.yogaonthelane.com/",
      "postcode": "E"
    }
  },
  {
    "name": "Yogarise Peckham",
    "provider": "MBO",
    "studioid": 138949,
    "redirectPage":  "",
    "locale": 
    {
      "name": "Yogarise Peckham",
      "url": "http://www.yogarise.london/",
      "postcode": "SE"
    }
  },
  {
    "name": "Yoga West",
    "provider": "MBO",
    "studioid": 43597,
    "redirectPage":  "",
    "locale":
    {
      "name": "Yoga West",
      "url": "http://www.yogaat.com/yogawest",
      "postcode": "W"
    }
  },
  {
    "name": "Yoke Dalston",
    "provider": "MBO",
    "studioid": 314529,
    "redirectPage":  "",
    "locale":
    {
      "name": "Yoke Dalston",
      "url": "http://yokedalston.co.uk/",
      "postcode": "N"
    }
  },
  {
    "name": "Yotopia",
    "provider": "MBO",
    "studioid": 16311,
    "redirectPage":  "",
    "locale":
    {
      "name": "Yotopia",
      "url": "http://yotopia.co.uk/",
      "postcode": "WC"
    }
  }
]
